{
  "type": "FeatureCollection",
  "layers": [
    {
      "id": 1,
      "name": "Слой 1",
      "visible": true
    },
    {
      "id": 2,
      "name": "Слой 2",
      "visible": true
    }
  ],
  "features": [
    {
      "type": "Feature",
      "properties": {
        "kind": "polygon",
        "color": "#e03131",
        "weight": 3,
        "opacity": 0.1,
        "name": "Территория 5",
        "layer": 1
      },
      "geometry": {
        "type": "Polygon",
        "coordinates": [
          [
            [
              34.935247,
              45.989504
            ],
            [
              35.111005,
              45.683354
            ],
            [
              35.46252,
              45.321475
            ],
            [
              35.649262,
              45.329199
            ],
            [
              35.770095,
              45.498856
            ],
            [
              36.14358,
              45.498856
            ],
            [
              36.374262,
              45.514254
            ],
            [
              36.637898,
              45.444929
            ],
            [
              36.648883,
              45.336922
            ],
            [
              36.539034,
              45.329199
            ],
            [
              36.528049,
              45.205492
            ],
            [
              36.50608,
              45.089273
            ],
            [
              36.242443,
              44.980587
            ],
            [
              35.978807,
              44.941721
            ],
            [
              35.770095,
              45.011661
            ],
            [
              35.616308,
              45.066
            ],
            [
              35.495474,
              45.066
            ],
            [
              35.473505,
              45.003894
            ],
            [
              35.451535,
              44.902828
            ],
            [
              35.341686,
              44.902828
            ],
            [
              35.209868,
              44.793788
            ],
            [
              35.023126,
              44.754796
            ],
            [
              34.880323,
              44.770396
            ],
            [
              34.748505,
              44.770396
            ],
            [
              34.561763,
              44.731387
            ],
            [
              34.484869,
              44.645476
            ],
            [
              34.44093,
              44.54378
            ],
            [
              34.298127,
              44.488947
            ],
            [
              34.188278,
              44.394827
            ],
            [
              34.001536,
              44.386977
            ],
            [
              33.781839,
              44.371274
            ],
            [
              33.639036,
              44.379126
            ],
            [
              33.551157,
              44.434062
            ],
            [
              33.386385,
              44.496783
            ],
            [
              33.331461,
              44.54378
            ],
            [
              33.3754,
              44.622023
            ],
            [
              33.474264,
              44.637659
            ],
            [
              33.507218,
              44.770396
            ],
            [
              33.507218,
              44.87948
            ],
            [
              33.573127,
              44.941721
            ],
            [
              33.463279,
              45.089273
            ],
            [
              33.419339,
              45.143538
            ],
            [
              33.298506,
              45.104782
            ],
            [
              33.133733,
              45.174524
            ],
            [
              33.0129,
              45.213232
            ],
            [
              32.946991,
              45.298298
            ],
            [
              32.859112,
              45.336922
            ],
            [
              32.760249,
              45.321475
            ],
            [
              32.71631,
              45.259647
            ],
            [
              32.529567,
              45.26738
            ],
            [
              32.463658,
              45.321475
            ],
            [
              32.463658,
              45.421802
            ],
            [
              32.551537,
              45.545037
            ],
            [
              32.727294,
              45.629605
            ],
            [
              32.881082,
              45.706374
            ],
            [
              33.045855,
              45.752385
            ],
            [
              33.177673,
              45.874895
            ],
            [
              33.177673,
              45.943689
            ],
            [
              33.0129,
              45.943689
            ],
            [
              32.639416,
              45.958965
            ],
            [
              32.342825,
              46.0734
            ],
            [
              31.62881,
              46.179993
            ],
            [
              31.420098,
              46.30156
            ],
            [
              31.518962,
              46.407711
            ],
            [
              31.431083,
              46.596753
            ],
            [
              31.661765,
              46.566551
            ],
            [
              31.793583,
              46.589204
            ],
            [
              32.035249,
              46.528774
            ],
            [
              32.320855,
              46.528774
            ],
            [
              32.496613,
              46.581654
            ],
            [
              32.584491,
              46.596753
            ],
            [
              32.727294,
              46.664647
            ],
            [
              32.826158,
              46.664647
            ],
            [
              32.925021,
              46.724926
            ],
            [
              33.078809,
              46.747513
            ],
            [
              33.144718,
              46.777615
            ],
            [
              33.287521,
              46.777615
            ],
            [
              33.3754,
              46.777615
            ],
            [
              33.474264,
              46.822736
            ],
            [
              33.562142,
              46.830252
            ],
            [
              33.617066,
              46.935373
            ],
            [
              33.748885,
              47.062742
            ],
            [
              33.847748,
              47.144995
            ],
            [
              33.946612,
              47.249498
            ],
            [
              34.012521,
              47.457885
            ],
            [
              34.210248,
              47.457885
            ],
            [
              34.353051,
              47.539527
            ],
            [
              34.572748,
              47.561771
            ],
            [
              34.748505,
              47.524693
            ],
            [
              34.869228,
              47.467093
            ],
            [
              34.935153,
              47.408575
            ],
            [
              35.016174,
              47.44295
            ],
            [
              35.095829,
              47.467096
            ],
            [
              35.219434,
              47.469884
            ],
            [
              35.248946,
              47.487513
            ],
            [
              35.265427,
              47.511171
            ],
            [
              35.30834,
              47.523694
            ],
            [
              35.328596,
              47.545713
            ],
            [
              35.327697,
              47.55727
            ],
            [
              35.327053,
              47.563728
            ],
            [
              35.338554,
              47.564712
            ],
            [
              35.336409,
              47.569114
            ],
            [
              35.334607,
              47.573515
            ],
            [
              35.336324,
              47.577278
            ],
            [
              35.34011,
              47.581275
            ],
            [
              35.345421,
              47.582432
            ],
            [
              35.354862,
              47.582895
            ],
            [
              35.357223,
              47.585442
            ],
            [
              35.359969,
              47.585818
            ],
            [
              35.360613,
              47.587265
            ],
            [
              35.363275,
              47.587439
            ],
            [
              35.365935,
              47.587468
            ],
            [
              35.367738,
              47.587526
            ],
            [
              35.368424,
              47.586281
            ],
            [
              35.372758,
              47.586339
            ],
            [
              35.381512,
              47.586831
            ],
            [
              35.383959,
              47.583358
            ],
            [
              35.390225,
              47.584689
            ],
            [
              35.398293,
              47.591462
            ],
            [
              35.407052,
              47.60489
            ],
            [
              35.415636,
              47.606279
            ],
            [
              35.419665,
              47.604427
            ],
            [
              35.417262,
              47.596672
            ],
            [
              35.420695,
              47.595688
            ],
            [
              35.422497,
              47.589147
            ],
            [
              35.427647,
              47.589032
            ],
            [
              35.451163,
              47.582779
            ],
            [
              35.46009,
              47.584516
            ],
            [
              35.475023,
              47.584748
            ],
            [
              35.474855,
              47.596441
            ],
            [
              35.473311,
              47.605353
            ],
            [
              35.492019,
              47.607089
            ],
            [
              35.499058,
              47.610445
            ],
            [
              35.506459,
              47.621042
            ],
            [
              35.520086,
              47.626124
            ],
            [
              35.524293,
              47.618314
            ],
            [
              35.533563,
              47.604311
            ],
            [
              35.551156,
              47.596209
            ],
            [
              35.553817,
              47.588221
            ],
            [
              35.573728,
              47.59204
            ],
            [
              35.591924,
              47.59667
            ],
            [
              35.648915,
              47.618196
            ],
            [
              35.67707,
              47.617041
            ],
            [
              35.718268,
              47.610444
            ],
            [
              35.726509,
              47.605469
            ],
            [
              35.739212,
              47.597019
            ],
            [
              35.723591,
              47.590189
            ],
            [
              35.711404,
              47.580115
            ],
            [
              35.707974,
              47.55788
            ],
            [
              35.720503,
              47.518711
            ],
            [
              35.757924,
              47.51152
            ],
            [
              35.793799,
              47.51152
            ],
            [
              35.80392,
              47.520679
            ],
            [
              35.799977,
              47.534124
            ],
            [
              35.776974,
              47.551042
            ],
            [
              35.771503,
              47.558468
            ],
            [
              35.776636,
              47.566739
            ],
            [
              35.790796,
              47.57363
            ],
            [
              35.800152,
              47.571488
            ],
            [
              35.809765,
              47.566913
            ],
            [
              35.825472,
              47.567724
            ],
            [
              35.845642,
              47.562193
            ],
            [
              35.848903,
              47.560021
            ],
            [
              35.84899,
              47.551275
            ],
            [
              35.860576,
              47.545945
            ],
            [
              35.871906,
              47.549189
            ],
            [
              35.882208,
              47.549653
            ],
            [
              35.903149,
              47.542584
            ],
            [
              35.916538,
              47.542121
            ],
            [
              35.921516,
              47.540267
            ],
            [
              35.924951,
              47.537022
            ],
            [
              35.947435,
              47.54328
            ],
            [
              35.95207,
              47.557763
            ],
            [
              35.958765,
              47.58382
            ],
            [
              35.944513,
              47.587179
            ],
            [
              35.91465,
              47.589147
            ],
            [
              35.904521,
              47.594588
            ],
            [
              35.884954,
              47.597482
            ],
            [
              35.843496,
              47.601649
            ],
            [
              35.848474,
              47.616462
            ],
            [
              35.851652,
              47.616693
            ],
            [
              35.889416,
              47.612875
            ],
            [
              35.911647,
              47.611429
            ],
            [
              35.914306,
              47.622827
            ],
            [
              35.912508,
              47.635379
            ],
            [
              35.927696,
              47.634222
            ],
            [
              35.942974,
              47.629248
            ],
            [
              35.960912,
              47.629363
            ],
            [
              35.972329,
              47.628149
            ],
            [
              35.985547,
              47.625199
            ],
            [
              36.009573,
              47.627572
            ],
            [
              36.046817,
              47.626994
            ],
            [
              36.061594,
              47.632197
            ],
            [
              36.068802,
              47.640295
            ],
            [
              36.073438,
              47.658913
            ],
            [
              36.075671,
              47.669202
            ],
            [
              36.11137,
              47.677756
            ],
            [
              36.090774,
              47.694743
            ],
            [
              36.055068,
              47.708029
            ],
            [
              36.070174,
              47.710455
            ],
            [
              36.06777,
              47.725006
            ],
            [
              36.066398,
              47.734936
            ],
            [
              36.050435,
              47.733603
            ],
            [
              36.045802,
              47.759178
            ],
            [
              36.036877,
              47.764484
            ],
            [
              36.049233,
              47.770945
            ],
            [
              36.090174,
              47.775329
            ],
            [
              36.104164,
              47.778329
            ],
            [
              36.105882,
              47.787268
            ],
            [
              36.118928,
              47.78871
            ],
            [
              36.160639,
              47.794592
            ],
            [
              36.177634,
              47.79488
            ],
            [
              36.183126,
              47.810388
            ],
            [
              36.187247,
              47.820301
            ],
            [
              36.167506,
              47.817995
            ],
            [
              36.148281,
              47.817361
            ],
            [
              36.136823,
              47.817564
            ],
            [
              36.134035,
              47.817189
            ],
            [
              36.122876,
              47.818688
            ],
            [
              36.119952,
              47.823298
            ],
            [
              36.113521,
              47.83223
            ],
            [
              36.110688,
              47.833094
            ],
            [
              36.101246,
              47.837069
            ],
            [
              36.097129,
              47.838798
            ],
            [
              36.077386,
              47.835976
            ],
            [
              36.072236,
              47.848994
            ],
            [
              36.028983,
              47.849226
            ],
            [
              36.030009,
              47.859476
            ],
            [
              36.046315,
              47.863507
            ],
            [
              36.067085,
              47.86662
            ],
            [
              36.084938,
              47.869154
            ],
            [
              36.082962,
              47.876404
            ],
            [
              36.057477,
              47.889646
            ],
            [
              36.057215,
              47.894363
            ],
            [
              36.059446,
              47.897758
            ],
            [
              36.063225,
              47.898564
            ],
            [
              36.067259,
              47.895629
            ],
            [
              36.072151,
              47.892522
            ],
            [
              36.090603,
              47.883773
            ],
            [
              36.107769,
              47.885846
            ],
            [
              36.125109,
              47.876289
            ],
            [
              36.122189,
              47.872605
            ],
            [
              36.121506,
              47.868344
            ],
            [
              36.158411,
              47.850722
            ],
            [
              36.166649,
              47.849167
            ],
            [
              36.176133,
              47.849311
            ],
            [
              36.182451,
              47.846579
            ],
            [
              36.189661,
              47.842432
            ],
            [
              36.193771,
              47.847957
            ],
            [
              36.197213,
              47.858097
            ],
            [
              36.188622,
              47.862817
            ],
            [
              36.193428,
              47.870187
            ],
            [
              36.192229,
              47.881239
            ],
            [
              36.187936,
              47.888032
            ],
            [
              36.20081,
              47.892866
            ],
            [
              36.222616,
              47.875831
            ],
            [
              36.226744,
              47.881362
            ],
            [
              36.232567,
              47.88124
            ],
            [
              36.235672,
              47.886654
            ],
            [
              36.240292,
              47.909322
            ],
            [
              36.246472,
              47.913235
            ],
            [
              36.256083,
              47.907137
            ],
            [
              36.256427,
              47.886075
            ],
            [
              36.259346,
              47.882621
            ],
            [
              36.259004,
              47.878937
            ],
            [
              36.263122,
              47.877556
            ],
            [
              36.266213,
              47.879398
            ],
            [
              36.268788,
              47.879225
            ],
            [
              36.270333,
              47.87721
            ],
            [
              36.274366,
              47.877268
            ],
            [
              36.280331,
              47.87862
            ],
            [
              36.285825,
              47.877383
            ],
            [
              36.292606,
              47.878333
            ],
            [
              36.298314,
              47.877959
            ],
            [
              36.307153,
              47.878937
            ],
            [
              36.311274,
              47.872144
            ],
            [
              36.3202,
              47.860628
            ],
            [
              36.335479,
              47.866905
            ],
            [
              36.354961,
              47.880031
            ],
            [
              36.369225,
              47.881354
            ],
            [
              36.40287,
              47.882505
            ],
            [
              36.446973,
              47.854754
            ],
            [
              36.459503,
              47.853948
            ],
            [
              36.465684,
              47.85936
            ],
            [
              36.473751,
              47.855848
            ],
            [
              36.480446,
              47.847036
            ],
            [
              36.497441,
              47.843233
            ],
            [
              36.500361,
              47.845884
            ],
            [
              36.527145,
              47.860051
            ],
            [
              36.52611,
              47.862701
            ],
            [
              36.52388,
              47.880203
            ],
            [
              36.530573,
              47.894132
            ],
            [
              36.536409,
              47.896204
            ],
            [
              36.569026,
              47.875252
            ],
            [
              36.659867,
              47.850082
            ],
            [
              36.857595,
              47.916389
            ],
            [
              37.154185,
              48.085454
            ],
            [
              37.16517,
              48.327059
            ],
            [
              37.450776,
              48.472932
            ],
            [
              37.703427,
              48.603859
            ],
            [
              37.967063,
              48.683704
            ],
            [
              37.934109,
              48.915262
            ],
            [
              37.956079,
              49.081033
            ],
            [
              37.901154,
              49.167304
            ],
            [
              37.868297,
              49.201451
            ],
            [
              37.876536,
              49.24719
            ],
            [
              37.902422,
              49.266011
            ],
            [
              37.921645,
              49.287512
            ],
            [
              37.949107,
              49.289303
            ],
            [
              37.951854,
              49.312585
            ],
            [
              37.877706,
              49.312585
            ],
            [
              37.896929,
              49.35017
            ],
            [
              37.891437,
              49.396665
            ],
            [
              37.891437,
              49.419896
            ],
            [
              37.872214,
              49.448472
            ],
            [
              37.847498,
              49.446687
            ],
            [
              37.811797,
              49.416322
            ],
            [
              37.743142,
              49.391302
            ],
            [
              37.690964,
              49.423469
            ],
            [
              37.658009,
              49.46097
            ],
            [
              37.679979,
              49.505576
            ],
            [
              37.69371,
              49.546578
            ],
            [
              37.647024,
              49.607127
            ],
            [
              37.61407,
              49.704914
            ],
            [
              37.627801,
              49.754621
            ],
            [
              37.655263,
              49.795414
            ],
            [
              37.674486,
              49.834401
            ],
            [
              37.710187,
              49.869817
            ],
            [
              37.759619,
              49.928196
            ],
            [
              37.814543,
              49.961776
            ],
            [
              37.899676,
              50.002394
            ],
            [
              37.512382,
              50.171559
            ],
            [
              37.454711,
              50.28927
            ],
            [
              37.33937,
              50.312075
            ],
            [
              36.996094,
              50.273475
            ],
            [
              36.834068,
              50.1698
            ],
            [
              36.372704,
              50.241869
            ],
            [
              36.144769,
              50.298042
            ],
            [
              36.109068,
              50.364662
            ],
            [
              36.147515,
              50.411941
            ],
            [
              36.185962,
              50.40844
            ],
            [
              36.213424,
              50.387432
            ],
            [
              36.229901,
              50.37167
            ],
            [
              36.251871,
              50.35415
            ],
            [
              36.287572,
              50.341882
            ],
            [
              36.279333,
              50.31909
            ],
            [
              36.293064,
              50.305059
            ],
            [
              36.31778,
              50.294534
            ],
            [
              36.358973,
              50.28927
            ],
            [
              36.394674,
              50.299797
            ],
            [
              36.424882,
              50.329611
            ],
            [
              36.435867,
              50.317337
            ],
            [
              36.488045,
              50.317337
            ],
            [
              36.496284,
              50.296288
            ],
            [
              36.515507,
              50.292779
            ],
            [
              36.545716,
              50.284005
            ],
            [
              36.562193,
              50.284005
            ],
            [
              36.586909,
              50.294534
            ],
            [
              36.60064,
              50.271719
            ],
            [
              36.562193,
              50.255919
            ],
            [
              36.589655,
              50.236599
            ],
            [
              36.62261,
              50.227815
            ],
            [
              36.666549,
              50.222544
            ],
            [
              36.68028,
              50.240112
            ],
            [
              36.685772,
              50.261186
            ],
            [
              36.713234,
              50.27523
            ],
            [
              36.743443,
              50.280495
            ],
            [
              36.75992,
              50.28576
            ],
            [
              36.779143,
              50.303305
            ],
            [
              36.801113,
              50.310322
            ],
            [
              36.814844,
              50.315583
            ],
            [
              36.831321,
              50.317337
            ],
            [
              36.864276,
              50.338376
            ],
            [
              36.897231,
              50.350645
            ],
            [
              36.94117,
              50.35415
            ],
            [
              37.023556,
              50.352397
            ],
            [
              37.04278,
              50.343635
            ],
            [
              37.10045,
              50.348892
            ],
            [
              37.10045,
              50.364662
            ],
            [
              37.138897,
              50.359406
            ],
            [
              37.155374,
              50.348892
            ],
            [
              37.207552,
              50.380427
            ],
            [
              37.245999,
              50.394436
            ],
            [
              37.300923,
              50.40844
            ],
            [
              37.331132,
              50.443434
            ],
            [
              37.372325,
              50.434688
            ],
            [
              37.421757,
              50.424191
            ],
            [
              37.435488,
              50.446932
            ],
            [
              37.48492,
              50.457424
            ],
            [
              37.487666,
              50.431189
            ],
            [
              37.468442,
              50.42594
            ],
            [
              37.465696,
              50.389183
            ],
            [
              37.471188,
              50.361158
            ],
            [
              37.498651,
              50.352397
            ],
            [
              37.528859,
              50.338376
            ],
            [
              37.561813,
              50.322598
            ],
            [
              37.575544,
              50.303305
            ],
            [
              37.603007,
              50.31909
            ],
            [
              37.638707,
              50.308568
            ],
            [
              37.627722,
              50.294534
            ],
            [
              37.627722,
              50.269964
            ],
            [
              37.627722,
              50.247138
            ],
            [
              37.613991,
              50.222544
            ],
            [
              37.646946,
              50.197937
            ],
            [
              37.6442,
              50.176836
            ],
            [
              37.668916,
              50.157484
            ],
            [
              37.704616,
              50.134605
            ],
            [
              37.732078,
              50.102907
            ],
            [
              37.751302,
              50.080001
            ],
            [
              37.819957,
              50.088812
            ],
            [
              37.828196,
              50.064136
            ],
            [
              37.880374,
              50.053557
            ],
            [
              37.910582,
              50.042976
            ],
            [
              37.943537,
              50.004157
            ],
            [
              37.970999,
              49.979438
            ],
            [
              38.009446,
              49.965307
            ],
            [
              38.047893,
              49.944103
            ],
            [
              38.020431,
              49.922889
            ],
            [
              38.036908,
              49.903435
            ],
            [
              38.06437,
              49.922889
            ],
            [
              38.116548,
              49.942335
            ],
            [
              38.135771,
              49.921121
            ],
            [
              38.174218,
              49.9388
            ],
            [
              38.160487,
              49.951172
            ],
            [
              38.196188,
              49.961774
            ],
            [
              38.220904,
              49.979438
            ],
            [
              38.204427,
              50.002392
            ],
            [
              38.185203,
              50.032392
            ],
            [
              38.179711,
              50.080001
            ],
            [
              38.22365,
              50.071188
            ],
            [
              38.262097,
              50.071188
            ],
            [
              38.292305,
              50.078238
            ],
            [
              38.300544,
              50.094098
            ],
            [
              38.333498,
              50.085288
            ],
            [
              38.333498,
              50.065899
            ],
            [
              38.34723,
              50.042976
            ],
            [
              38.352722,
              50.02357
            ],
            [
              38.349976,
              50.007687
            ],
            [
              38.410392,
              49.984736
            ],
            [
              38.437854,
              50.004157
            ],
            [
              38.46257,
              49.997096
            ],
            [
              38.470809,
              49.984736
            ],
            [
              38.487286,
              49.975906
            ],
            [
              38.487286,
              49.965307
            ],
            [
              38.533972,
              49.961774
            ],
            [
              38.558688,
              49.96884
            ],
            [
              38.575165,
              49.981204
            ],
            [
              38.597135,
              49.977672
            ],
            [
              38.610866,
              49.975906
            ],
            [
              38.641074,
              49.961774
            ],
            [
              38.663044,
              49.970607
            ],
            [
              38.674029,
              49.981204
            ],
            [
              38.676775,
              50.002392
            ],
            [
              38.690506,
              50.009452
            ],
            [
              38.715222,
              49.984736
            ],
            [
              38.690506,
              49.965307
            ],
            [
              38.693252,
              49.942335
            ],
            [
              38.720714,
              49.928193
            ],
            [
              38.739938,
              49.91051
            ],
            [
              38.775638,
              49.898128
            ],
            [
              38.789369,
              49.883973
            ],
            [
              38.82507,
              49.880434
            ],
            [
              38.852532,
              49.862733
            ],
            [
              38.879994,
              49.869814
            ],
            [
              38.90471,
              49.873355
            ],
            [
              38.910203,
              49.862733
            ],
            [
              38.907456,
              49.841484
            ],
            [
              38.915695,
              49.825541
            ],
            [
              38.912949,
              49.806048
            ],
            [
              38.937665,
              49.798957
            ],
            [
              38.962381,
              49.798957
            ],
            [
              38.995335,
              49.814909
            ],
            [
              39.020051,
              49.823769
            ],
            [
              39.072229,
              49.811365
            ],
            [
              39.127153,
              49.850339
            ],
            [
              39.124407,
              49.864504
            ],
            [
              39.182077,
              49.889282
            ],
            [
              39.198555,
              49.862733
            ],
            [
              39.234255,
              49.845026
            ],
            [
              39.223271,
              49.816681
            ],
            [
              39.24524,
              49.795412
            ],
            [
              39.258971,
              49.77768
            ],
            [
              39.280941,
              49.768812
            ],
            [
              39.28918,
              49.758167
            ],
            [
              39.36882,
              49.740422
            ],
            [
              39.420998,
              49.76349
            ],
            [
              39.434729,
              49.76349
            ],
            [
              39.473176,
              49.758167
            ],
            [
              39.511623,
              49.752845
            ],
            [
              39.533592,
              49.743972
            ],
            [
              39.583024,
              49.738647
            ],
            [
              39.610486,
              49.735097
            ],
            [
              39.591263,
              49.724446
            ],
            [
              39.610486,
              49.704912
            ],
            [
              39.62971,
              49.681816
            ],
            [
              39.62971,
              49.653376
            ],
            [
              39.676395,
              49.616022
            ],
            [
              39.739812,
              49.601887
            ],
            [
              39.775513,
              49.582304
            ],
            [
              39.808468,
              49.562713
            ],
            [
              39.844168,
              49.568056
            ],
            [
              39.890854,
              49.55915
            ],
            [
              39.923809,
              49.568056
            ],
            [
              39.951271,
              49.600107
            ],
            [
              40.014433,
              49.601887
            ],
            [
              40.050134,
              49.610786
            ],
            [
              40.061119,
              49.601887
            ],
            [
              40.138013,
              49.617904
            ],
            [
              40.157236,
              49.584084
            ],
            [
              40.179206,
              49.5734
            ],
            [
              40.143505,
              49.560931
            ],
            [
              40.113297,
              49.546678
            ],
            [
              40.039149,
              49.528855
            ],
            [
              40.039149,
              49.505676
            ],
            [
              40.039149,
              49.482486
            ],
            [
              40.019926,
              49.453929
            ],
            [
              40.061119,
              49.434286
            ],
            [
              40.088581,
              49.407488
            ],
            [
              40.127028,
              49.386039
            ],
            [
              40.165475,
              49.368158
            ],
            [
              40.192937,
              49.355637
            ],
            [
              40.203922,
              49.348481
            ],
            [
              40.187445,
              49.309104
            ],
            [
              40.179206,
              49.284029
            ],
            [
              40.231384,
              49.266111
            ],
            [
              40.220399,
              49.246393
            ],
            [
              40.187445,
              49.241014
            ],
            [
              40.143505,
              49.241014
            ],
            [
              40.124282,
              49.230255
            ],
            [
              40.102312,
              49.212317
            ],
            [
              40.091327,
              49.192578
            ],
            [
              40.072104,
              49.187193
            ],
            [
              40.030911,
              49.181808
            ],
            [
              40.019926,
              49.165648
            ],
            [
              39.99521,
              49.149483
            ],
            [
              39.975987,
              49.13511
            ],
            [
              39.945778,
              49.104553
            ],
            [
              39.940286,
              49.090167
            ],
            [
              39.948524,
              49.057783
            ],
            [
              39.921062,
              49.063181
            ],
            [
              39.877123,
              49.06858
            ],
            [
              39.83593,
              49.063181
            ],
            [
              39.802975,
              49.061382
            ],
            [
              39.767275,
              49.041583
            ],
            [
              39.731574,
              49.043383
            ],
            [
              39.695873,
              49.048783
            ],
            [
              39.679396,
              49.03258
            ],
            [
              39.673903,
              49.009167
            ],
            [
              39.665665,
              49.000158
            ],
            [
              39.701365,
              49.003762
            ],
            [
              39.715097,
              48.994753
            ],
            [
              39.728828,
              48.980335
            ],
            [
              39.750797,
              48.989347
            ],
            [
              39.75629,
              48.974927
            ],
            [
              39.770021,
              48.960503
            ],
            [
              39.772767,
              48.940664
            ],
            [
              39.781006,
              48.92623
            ],
            [
              39.808468,
              48.913597
            ],
            [
              39.824945,
              48.909987
            ],
            [
              39.830437,
              48.891933
            ],
            [
              39.841422,
              48.906377
            ],
            [
              39.857899,
              48.89735
            ],
            [
              39.8936,
              48.89735
            ],
            [
              39.921062,
              48.89735
            ],
            [
              39.93754,
              48.886516
            ],
            [
              39.959509,
              48.872067
            ],
            [
              39.99521,
              48.87026
            ],
            [
              40.000702,
              48.891933
            ],
            [
              40.025418,
              48.911792
            ],
            [
              40.041896,
              48.920816
            ],
            [
              40.058373,
              48.915402
            ],
            [
              40.055627,
              48.886516
            ],
            [
              40.080342,
              48.866647
            ],
            [
              40.036403,
              48.841348
            ],
            [
              40.003449,
              48.816036
            ],
            [
              39.978733,
              48.790711
            ],
            [
              39.951271,
              48.799757
            ],
            [
              39.91557,
              48.808802
            ],
            [
              39.860646,
              48.826885
            ],
            [
              39.802975,
              48.835925
            ],
            [
              39.786498,
              48.825077
            ],
            [
              39.789244,
              48.812419
            ],
            [
              39.789244,
              48.787092
            ],
            [
              39.778259,
              48.787092
            ],
            [
              39.767275,
              48.765374
            ],
            [
              39.750797,
              48.772614
            ],
            [
              39.729309,
              48.757545
            ],
            [
              39.725534,
              48.750643
            ],
            [
              39.730682,
              48.747701
            ],
            [
              39.730168,
              48.750983
            ],
            [
              39.733944,
              48.752793
            ],
            [
              39.738235,
              48.749172
            ],
            [
              39.739434,
              48.743511
            ],
            [
              39.724847,
              48.740795
            ],
            [
              39.724846,
              48.728567
            ],
            [
              39.717293,
              48.729247
            ],
            [
              39.710084,
              48.72381
            ],
            [
              39.704934,
              48.720413
            ],
            [
              39.712829,
              48.715656
            ],
            [
              39.702531,
              48.706369
            ],
            [
              39.713172,
              48.700704
            ],
            [
              39.717635,
              48.703423
            ],
            [
              39.721412,
              48.696399
            ],
            [
              39.716263,
              48.695492
            ],
            [
              39.720038,
              48.69232
            ],
            [
              39.715919,
              48.6896
            ],
            [
              39.722958,
              48.683821
            ],
            [
              39.720726,
              48.682008
            ],
            [
              39.715404,
              48.680646
            ],
            [
              39.713172,
              48.675093
            ],
            [
              39.704419,
              48.671806
            ],
            [
              39.702187,
              48.669992
            ],
            [
              39.703216,
              48.666931
            ],
            [
              39.70785,
              48.666817
            ],
            [
              39.710597,
              48.668178
            ],
            [
              39.711798,
              48.666137
            ],
            [
              39.70974,
              48.66251
            ],
            [
              39.709224,
              48.659902
            ],
            [
              39.712486,
              48.658995
            ],
            [
              39.716003,
              48.654799
            ],
            [
              39.713516,
              48.654062
            ],
            [
              39.709396,
              48.654459
            ],
            [
              39.706478,
              48.656784
            ],
            [
              39.70459,
              48.65616
            ],
            [
              39.703559,
              48.654062
            ],
            [
              39.701457,
              48.653042
            ],
            [
              39.698882,
              48.652219
            ],
            [
              39.697466,
              48.651029
            ],
            [
              39.694977,
              48.650206
            ],
            [
              39.69326,
              48.648647
            ],
            [
              39.691286,
              48.646492
            ],
            [
              39.691672,
              48.644876
            ],
            [
              39.693904,
              48.643033
            ],
            [
              39.693904,
              48.641898
            ],
            [
              39.694462,
              48.63963
            ],
            [
              39.694376,
              48.637673
            ],
            [
              39.693431,
              48.636197
            ],
            [
              39.690514,
              48.635461
            ],
            [
              39.688282,
              48.632512
            ],
            [
              39.683561,
              48.63149
            ],
            [
              39.673778,
              48.626272
            ],
            [
              39.668371,
              48.621449
            ],
            [
              39.666138,
              48.618669
            ],
            [
              39.665623,
              48.616513
            ],
            [
              39.664164,
              48.61447
            ],
            [
              39.66322,
              48.612768
            ],
            [
              39.661246,
              48.611065
            ],
            [
              39.660302,
              48.607774
            ],
            [
              39.662105,
              48.60522
            ],
            [
              39.664507,
              48.604936
            ],
            [
              39.668283,
              48.60539
            ],
            [
              39.670775,
              48.604312
            ],
            [
              39.671287,
              48.603716
            ],
            [
              39.67103,
              48.602893
            ],
            [
              39.668198,
              48.601417
            ],
            [
              39.668627,
              48.596649
            ],
            [
              39.671374,
              48.5954
            ],
            [
              39.673605,
              48.595797
            ],
            [
              39.675064,
              48.596989
            ],
            [
              39.676523,
              48.598465
            ],
            [
              39.679355,
              48.597898
            ],
            [
              39.680557,
              48.596989
            ],
            [
              39.680557,
              48.596081
            ],
            [
              39.679527,
              48.59557
            ],
            [
              39.678068,
              48.595797
            ],
            [
              39.675579,
              48.594605
            ],
            [
              39.675322,
              48.592732
            ],
            [
              39.676352,
              48.591086
            ],
            [
              39.678521,
              48.589318
            ],
            [
              39.680218,
              48.592278
            ],
            [
              39.68348,
              48.592391
            ],
            [
              39.683823,
              48.590688
            ],
            [
              39.686741,
              48.589099
            ],
            [
              39.687084,
              48.587055
            ],
            [
              39.691547,
              48.58626
            ],
            [
              39.696693,
              48.587963
            ],
            [
              39.702189,
              48.587963
            ],
            [
              39.713688,
              48.585125
            ],
            [
              39.721585,
              48.585125
            ],
            [
              39.724847,
              48.586487
            ],
            [
              39.734974,
              48.585125
            ],
            [
              39.745789,
              48.590348
            ],
            [
              39.750423,
              48.588985
            ],
            [
              39.750771,
              48.582513
            ],
            [
              39.761753,
              48.584103
            ],
            [
              39.770164,
              48.587509
            ],
            [
              39.772913,
              48.592505
            ],
            [
              39.790422,
              48.5933
            ],
            [
              39.798832,
              48.590802
            ],
            [
              39.806385,
              48.585125
            ],
            [
              39.812908,
              48.584216
            ],
            [
              39.823721,
              48.586371
            ],
            [
              39.825954,
              48.584784
            ],
            [
              39.826126,
              48.582286
            ],
            [
              39.819777,
              48.579219
            ],
            [
              39.84415,
              48.571837
            ],
            [
              39.850502,
              48.568543
            ],
            [
              39.855137,
              48.561727
            ],
            [
              39.85222,
              48.553886
            ],
            [
              39.856681,
              48.544342
            ],
            [
              39.854451,
              48.536385
            ],
            [
              39.864235,
              48.523426
            ],
            [
              39.86372,
              48.51433
            ],
            [
              39.867325,
              48.508872
            ],
            [
              39.867324,
              48.503981
            ],
            [
              39.860802,
              48.501365
            ],
            [
              39.855825,
              48.501365
            ],
            [
              39.852562,
              48.50364
            ],
            [
              39.847416,
              48.502046
            ],
            [
              39.846725,
              48.489079
            ],
            [
              39.844666,
              48.475426
            ],
            [
              39.852908,
              48.466093
            ],
            [
              39.880714,
              48.455392
            ],
            [
              39.885865,
              48.451749
            ],
            [
              39.89788,
              48.448789
            ],
            [
              39.900975,
              48.444231
            ],
            [
              39.888271,
              48.442637
            ],
            [
              39.898225,
              48.426693
            ],
            [
              39.905435,
              48.424643
            ],
            [
              39.910584,
              48.421909
            ],
            [
              39.911958,
              48.416213
            ],
            [
              39.906122,
              48.407097
            ],
            [
              39.906808,
              48.402995
            ],
            [
              39.914017,
              48.401627
            ],
            [
              39.919167,
              48.397752
            ],
            [
              39.915046,
              48.39365
            ],
            [
              39.905436,
              48.391598
            ],
            [
              39.907495,
              48.388406
            ],
            [
              39.915047,
              48.38681
            ],
            [
              39.914704,
              48.381794
            ],
            [
              39.91951,
              48.376778
            ],
            [
              39.929127,
              48.375865
            ],
            [
              39.933586,
              48.380654
            ],
            [
              39.936338,
              48.388403
            ],
            [
              39.941487,
              48.387263
            ],
            [
              39.941825,
              48.380198
            ],
            [
              39.934965,
              48.373354
            ],
            [
              39.934702,
              48.370677
            ],
            [
              39.936504,
              48.367427
            ],
            [
              39.934101,
              48.364462
            ],
            [
              39.932556,
              48.365431
            ],
            [
              39.931612,
              48.364348
            ],
            [
              39.933672,
              48.36372
            ],
            [
              39.932814,
              48.362922
            ],
            [
              39.935388,
              48.359044
            ],
            [
              39.934789,
              48.357732
            ],
            [
              39.936762,
              48.356135
            ],
            [
              39.946803,
              48.354025
            ],
            [
              39.943025,
              48.345697
            ],
            [
              39.932298,
              48.349062
            ],
            [
              39.91891,
              48.347522
            ],
            [
              39.918476,
              48.340962
            ],
            [
              39.877625,
              48.333659
            ],
            [
              39.86269,
              48.334343
            ],
            [
              39.8464,
              48.332974
            ],
            [
              39.841061,
              48.328808
            ],
            [
              39.841575,
              48.319506
            ],
            [
              39.840208,
              48.310373
            ],
            [
              39.88552,
              48.309231
            ],
            [
              39.888269,
              48.303979
            ],
            [
              39.898911,
              48.296214
            ],
            [
              39.910586,
              48.291076
            ],
            [
              39.911442,
              48.287305
            ],
            [
              39.912644,
              48.283993
            ],
            [
              39.915561,
              48.283421
            ],
            [
              39.91539,
              48.279423
            ],
            [
              39.912129,
              48.275882
            ],
            [
              39.911957,
              48.273825
            ],
            [
              39.910241,
              48.271768
            ],
            [
              39.912643,
              48.271311
            ],
            [
              39.915046,
              48.272111
            ],
            [
              39.914704,
              48.269941
            ],
            [
              39.918566,
              48.27034
            ],
            [
              39.92054,
              48.271768
            ],
            [
              39.925008,
              48.271541
            ],
            [
              39.925775,
              48.272568
            ],
            [
              39.92569,
              48.273768
            ],
            [
              39.928093,
              48.276224
            ],
            [
              39.929209,
              48.277938
            ],
            [
              39.93144,
              48.277767
            ],
            [
              39.932642,
              48.279138
            ],
            [
              39.934787,
              48.279081
            ],
            [
              39.934873,
              48.280223
            ],
            [
              39.93187,
              48.281537
            ],
            [
              39.930153,
              48.28285
            ],
            [
              39.931955,
              48.283764
            ],
            [
              39.934359,
              48.28365
            ],
            [
              39.936247,
              48.285078
            ],
            [
              39.937191,
              48.288447
            ],
            [
              39.936247,
              48.290275
            ],
            [
              39.937196,
              48.292102
            ],
            [
              39.940195,
              48.292787
            ],
            [
              39.942002,
              48.292731
            ],
            [
              39.943633,
              48.292045
            ],
            [
              39.945693,
              48.292616
            ],
            [
              39.946461,
              48.294101
            ],
            [
              39.948439,
              48.294329
            ],
            [
              39.948354,
              48.296214
            ],
            [
              39.949122,
              48.296899
            ],
            [
              39.950757,
              48.297241
            ],
            [
              39.95007,
              48.298383
            ],
            [
              39.949555,
              48.299411
            ],
            [
              39.951701,
              48.299982
            ],
            [
              39.952044,
              48.301866
            ],
            [
              39.951615,
              48.303351
            ],
            [
              39.953928,
              48.304036
            ],
            [
              39.956678,
              48.303294
            ],
            [
              39.95685,
              48.301923
            ],
            [
              39.963115,
              48.303179
            ],
            [
              39.964574,
              48.304321
            ],
            [
              39.96569,
              48.305006
            ],
            [
              39.965948,
              48.306262
            ],
            [
              39.966463,
              48.30689
            ],
            [
              39.968262,
              48.306891
            ],
            [
              39.970925,
              48.307061
            ],
            [
              39.971053,
              48.307776
            ],
            [
              39.970538,
              48.308832
            ],
            [
              39.971138,
              48.309317
            ],
            [
              39.971739,
              48.309859
            ],
            [
              39.971053,
              48.311258
            ],
            [
              39.971138,
              48.311857
            ],
            [
              39.972103,
              48.312742
            ],
            [
              39.974141,
              48.313327
            ],
            [
              39.975364,
              48.314312
            ],
            [
              39.979077,
              48.315681
            ],
            [
              39.980192,
              48.315781
            ],
            [
              39.982317,
              48.315767
            ],
            [
              39.98399,
              48.316117
            ],
            [
              39.98523,
              48.316991
            ],
            [
              39.986994,
              48.317622
            ],
            [
              39.990792,
              48.317109
            ],
            [
              39.993496,
              48.313284
            ],
            [
              39.994527,
              48.300325
            ],
            [
              40.003283,
              48.281309
            ],
            [
              40.010062,
              48.270054
            ],
            [
              40.013581,
              48.26994
            ],
            [
              40.015555,
              48.266455
            ],
            [
              40.012294,
              48.265426
            ],
            [
              40.021219,
              48.253655
            ],
            [
              40.007745,
              48.242053
            ],
            [
              40.009288,
              48.224902
            ],
            [
              40.002938,
              48.2233
            ],
            [
              39.943539,
              48.228786
            ],
            [
              39.937702,
              48.180967
            ],
            [
              39.925344,
              48.181881
            ],
            [
              39.910239,
              48.179821
            ],
            [
              39.90612,
              48.165169
            ],
            [
              39.908866,
              48.152344
            ],
            [
              39.904404,
              48.14135
            ],
            [
              39.897194,
              48.133102
            ],
            [
              39.889984,
              48.131269
            ],
            [
              39.873482,
              48.118428
            ],
            [
              39.869039,
              48.078997
            ],
            [
              39.835051,
              48.066609
            ],
            [
              39.847414,
              48.058922
            ],
            [
              39.883458,
              48.04894
            ],
            [
              39.883107,
              48.041366
            ],
            [
              39.777031,
              48.039299
            ],
            [
              39.783554,
              48.029427
            ],
            [
              39.785271,
              48.021621
            ],
            [
              39.793168,
              48.011055
            ],
            [
              39.800721,
              48.006463
            ],
            [
              39.811363,
              48.003936
            ],
            [
              39.816855,
              48.001408
            ],
            [
              39.812909,
              47.997963
            ],
            [
              39.815655,
              47.99624
            ],
            [
              39.818058,
              47.994287
            ],
            [
              39.815827,
              47.993196
            ],
            [
              39.816599,
              47.990611
            ],
            [
              39.81883,
              47.990381
            ],
            [
              39.81823,
              47.989634
            ],
            [
              39.816685,
              47.989347
            ],
            [
              39.81514,
              47.988543
            ],
            [
              39.815397,
              47.985786
            ],
            [
              39.816513,
              47.985096
            ],
            [
              39.816256,
              47.983545
            ],
            [
              39.81823,
              47.984464
            ],
            [
              39.81926,
              47.983832
            ],
            [
              39.823036,
              47.982856
            ],
            [
              39.822092,
              47.981017
            ],
            [
              39.822779,
              47.980041
            ],
            [
              39.820547,
              47.978087
            ],
            [
              39.82029,
              47.975387
            ],
            [
              39.815656,
              47.971537
            ],
            [
              39.818745,
              47.968548
            ],
            [
              39.818659,
              47.967227
            ],
            [
              39.816771,
              47.966364
            ],
            [
              39.818315,
              47.964985
            ],
            [
              39.816771,
              47.963721
            ],
            [
              39.817972,
              47.963261
            ],
            [
              39.81823,
              47.962169
            ],
            [
              39.818745,
              47.961077
            ],
            [
              39.817887,
              47.96079
            ],
            [
              39.822006,
              47.95987
            ],
            [
              39.822006,
              47.958663
            ],
            [
              39.823208,
              47.958433
            ],
            [
              39.823294,
              47.957341
            ],
            [
              39.821921,
              47.957456
            ],
            [
              39.822436,
              47.955904
            ],
            [
              39.824581,
              47.956077
            ],
            [
              39.824753,
              47.954984
            ],
            [
              39.82295,
              47.954122
            ],
            [
              39.822178,
              47.95257
            ],
            [
              39.821062,
              47.951593
            ],
            [
              39.821835,
              47.950673
            ],
            [
              39.806728,
              47.9505
            ],
            [
              39.806728,
              47.934862
            ],
            [
              39.802609,
              47.936242
            ],
            [
              39.799519,
              47.934632
            ],
            [
              39.801063,
              47.933597
            ],
            [
              39.801235,
              47.930721
            ],
            [
              39.800892,
              47.925891
            ],
            [
              39.794197,
              47.920369
            ],
            [
              39.794193,
              47.869956
            ],
            [
              39.778061,
              47.86938
            ],
            [
              39.763985,
              47.870991
            ],
            [
              39.763296,
              47.846575
            ],
            [
              39.756774,
              47.846804
            ],
            [
              39.737892,
              47.827447
            ],
            [
              39.652394,
              47.8339
            ],
            [
              39.63695,
              47.838048
            ],
            [
              39.626307,
              47.839201
            ],
            [
              39.621502,
              47.836205
            ],
            [
              39.565203,
              47.836205
            ],
            [
              39.541167,
              47.824912
            ],
            [
              39.532242,
              47.832978
            ],
            [
              39.520224,
              47.825604
            ],
            [
              39.477654,
              47.860165
            ],
            [
              39.460144,
              47.858555
            ],
            [
              39.456024,
              47.854639
            ],
            [
              39.446754,
              47.851874
            ],
            [
              39.445896,
              47.85556
            ],
            [
              39.441433,
              47.854984
            ],
            [
              39.43268,
              47.844386
            ],
            [
              39.438172,
              47.839892
            ],
            [
              39.425898,
              47.836724
            ],
            [
              39.421863,
              47.833209
            ],
            [
              39.413281,
              47.829983
            ],
            [
              39.388019,
              47.870298
            ],
            [
              39.355089,
              47.872604
            ],
            [
              39.349922,
              47.871453
            ],
            [
              39.351636,
              47.867077
            ],
            [
              39.241444,
              47.867768
            ],
            [
              39.23913,
              47.865695
            ],
            [
              39.235268,
              47.863622
            ],
            [
              39.237156,
              47.862816
            ],
            [
              39.237242,
              47.861952
            ],
            [
              39.236898,
              47.860916
            ],
            [
              39.235182,
              47.86057
            ],
            [
              39.234066,
              47.860052
            ],
            [
              39.233723,
              47.857461
            ],
            [
              39.23604,
              47.855387
            ],
            [
              39.236974,
              47.853488
            ],
            [
              39.181283,
              47.853717
            ],
            [
              39.178877,
              47.851759
            ],
            [
              39.175873,
              47.850434
            ],
            [
              39.174499,
              47.848648
            ],
            [
              39.171923,
              47.846576
            ],
            [
              39.170809,
              47.846805
            ],
            [
              39.169564,
              47.846575
            ],
            [
              39.169135,
              47.847036
            ],
            [
              39.168234,
              47.84741
            ],
            [
              39.167848,
              47.848216
            ],
            [
              39.166389,
              47.848792
            ],
            [
              39.166474,
              47.849656
            ],
            [
              39.165273,
              47.850204
            ],
            [
              39.164028,
              47.850261
            ],
            [
              39.163213,
              47.850895
            ],
            [
              39.162183,
              47.851586
            ],
            [
              39.162054,
              47.852392
            ],
            [
              39.149095,
              47.851873
            ],
            [
              39.150122,
              47.842427
            ],
            [
              39.110646,
              47.842888
            ],
            [
              39.109271,
              47.851413
            ],
            [
              39.083182,
              47.851874
            ],
            [
              39.08249,
              47.868455
            ],
            [
              38.98314,
              47.871681
            ],
            [
              38.883791,
              47.874907
            ],
            [
              38.880014,
              47.875944
            ],
            [
              38.878212,
              47.875598
            ],
            [
              38.879585,
              47.872029
            ],
            [
              38.877867,
              47.867423
            ],
            [
              38.843367,
              47.865234
            ],
            [
              38.842851,
              47.851644
            ],
            [
              38.838215,
              47.851989
            ],
            [
              38.834782,
              47.849685
            ],
            [
              38.828777,
              47.850031
            ],
            [
              38.824654,
              47.840699
            ],
            [
              38.82637,
              47.838395
            ],
            [
              38.826027,
              47.834592
            ],
            [
              38.82843,
              47.828715
            ],
            [
              38.83358,
              47.826295
            ],
            [
              38.829117,
              47.823529
            ],
            [
              38.829117,
              47.820301
            ],
            [
              38.829114,
              47.815691
            ],
            [
              38.789981,
              47.81569
            ],
            [
              38.790321,
              47.797474
            ],
            [
              38.784489,
              47.789171
            ],
            [
              38.794097,
              47.784096
            ],
            [
              38.789981,
              47.778099
            ],
            [
              38.798903,
              47.77256
            ],
            [
              38.791354,
              47.767023
            ],
            [
              38.791351,
              47.744403
            ],
            [
              38.784525,
              47.735633
            ],
            [
              38.772167,
              47.720853
            ],
            [
              38.765042,
              47.683833
            ],
            [
              38.755302,
              47.686654
            ],
            [
              38.751182,
              47.683419
            ],
            [
              38.747062,
              47.68573
            ],
            [
              38.74157,
              47.680414
            ],
            [
              38.735047,
              47.680414
            ],
            [
              38.738136,
              47.683419
            ],
            [
              38.738479,
              47.686886
            ],
            [
              38.728867,
              47.691277
            ],
            [
              38.736762,
              47.694512
            ],
            [
              38.734012,
              47.700057
            ],
            [
              38.666716,
              47.698668
            ],
            [
              38.665693,
              47.670012
            ],
            [
              38.62895,
              47.668855
            ],
            [
              38.628615,
              47.654288
            ],
            [
              38.61556,
              47.644111
            ],
            [
              38.455593,
              47.644573
            ],
            [
              38.454209,
              47.617736
            ],
            [
              38.353274,
              47.615419
            ],
            [
              38.353267,
              47.574673
            ],
            [
              38.312073,
              47.576062
            ],
            [
              38.307266,
              47.544092
            ],
            [
              38.285637,
              47.544786
            ],
            [
              38.285294,
              47.508274
            ],
            [
              38.29216,
              47.507115
            ],
            [
              38.293018,
              47.504795
            ],
            [
              38.29422,
              47.501315
            ],
            [
              38.290443,
              47.498533
            ],
            [
              38.29216,
              47.495054
            ],
            [
              38.289757,
              47.492966
            ],
            [
              38.291644,
              47.490647
            ],
            [
              38.28701,
              47.486355
            ],
            [
              38.289071,
              47.476378
            ],
            [
              38.301774,
              47.474979
            ],
            [
              38.305894,
              47.390911
            ],
            [
              38.287355,
              47.392306
            ],
            [
              38.288039,
              47.37185
            ],
            [
              38.255769,
              47.372778
            ],
            [
              38.244096,
              47.363478
            ],
            [
              38.247528,
              47.361851
            ],
            [
              38.249416,
              47.358362
            ],
            [
              38.245468,
              47.34999
            ],
            [
              38.239976,
              47.346966
            ],
            [
              38.231907,
              47.345453
            ],
            [
              38.230362,
              47.339288
            ],
            [
              38.225041,
              47.335798
            ],
            [
              38.222123,
              47.332541
            ],
            [
              38.225384,
              47.332192
            ],
            [
              38.226414,
              47.32905
            ],
            [
              38.222123,
              47.326956
            ],
            [
              38.220762,
              47.305777
            ],
            [
              38.334724,
              47.305774
            ],
            [
              38.334388,
              47.301817
            ],
            [
              38.32718,
              47.298325
            ],
            [
              38.332844,
              47.296579
            ],
            [
              38.333531,
              47.292853
            ],
            [
              38.329925,
              47.289243
            ],
            [
              38.32409,
              47.281791
            ],
            [
              38.323231,
              47.280394
            ],
            [
              38.327007,
              47.279345
            ],
            [
              38.326492,
              47.2769
            ],
            [
              38.330269,
              47.275735
            ],
            [
              38.330784,
              47.273406
            ],
            [
              38.333702,
              47.272124
            ],
            [
              38.332415,
              47.271134
            ],
            [
              38.333186,
              47.269096
            ],
            [
              38.329411,
              47.267815
            ],
            [
              38.328038,
              47.265834
            ],
            [
              38.331642,
              47.264437
            ],
            [
              38.330269,
              47.261757
            ],
            [
              38.324776,
              47.255933
            ],
            [
              38.288554,
              47.256397
            ],
            [
              38.288466,
              47.238744
            ],
            [
              38.26066,
              47.238277
            ],
            [
              38.258171,
              47.236034
            ],
            [
              38.257399,
              47.235218
            ],
            [
              38.256326,
              47.234898
            ],
            [
              38.254695,
              47.233965
            ],
            [
              38.250961,
              47.23347
            ],
            [
              38.248043,
              47.233499
            ],
            [
              38.246477,
              47.234096
            ],
            [
              38.244202,
              47.233178
            ],
            [
              38.243151,
              47.232625
            ],
            [
              38.241423,
              47.232523
            ],
            [
              38.240962,
              47.23237
            ],
            [
              38.240833,
              47.23218
            ],
            [
              38.240233,
              47.232246
            ],
            [
              38.239868,
              47.23237
            ],
            [
              38.239782,
              47.232581
            ],
            [
              38.238902,
              47.232741
            ],
            [
              38.238194,
              47.232581
            ],
            [
              38.237701,
              47.232086
            ],
            [
              38.2377,
              47.231721
            ],
            [
              38.237357,
              47.231328
            ],
            [
              38.236746,
              47.230971
            ],
            [
              38.236177,
              47.230833
            ],
            [
              38.235619,
              47.230891
            ],
            [
              38.235222,
              47.23108
            ],
            [
              38.234461,
              47.231051
            ],
            [
              38.234246,
              47.230796
            ],
            [
              38.233935,
              47.230242
            ],
            [
              38.233269,
              47.229689
            ],
            [
              38.233114,
              47.229358
            ],
            [
              38.232636,
              47.22904
            ],
            [
              38.232851,
              47.228312
            ],
            [
              38.233666,
              47.227991
            ],
            [
              38.234053,
              47.227467
            ],
            [
              38.233839,
              47.226038
            ],
            [
              38.234654,
              47.225456
            ],
            [
              38.23607,
              47.22563
            ],
            [
              38.236542,
              47.225368
            ],
            [
              38.236113,
              47.224523
            ],
            [
              38.236413,
              47.224261
            ],
            [
              38.238044,
              47.223853
            ],
            [
              38.238859,
              47.22359
            ],
            [
              38.238859,
              47.223066
            ],
            [
              38.23843,
              47.222978
            ],
            [
              38.238129,
              47.222658
            ],
            [
              38.238473,
              47.222454
            ],
            [
              38.23813,
              47.221958
            ],
            [
              38.23873,
              47.221608
            ],
            [
              38.23946,
              47.221725
            ],
            [
              38.240104,
              47.221492
            ],
            [
              38.240061,
              47.221055
            ],
            [
              38.24019,
              47.220413
            ],
            [
              38.239675,
              47.219014
            ],
            [
              38.240147,
              47.218431
            ],
            [
              38.241692,
              47.218402
            ],
            [
              38.24255,
              47.218344
            ],
            [
              38.242807,
              47.217061
            ],
            [
              38.242271,
              47.216216
            ],
            [
              38.242207,
              47.215181
            ],
            [
              38.24167,
              47.214773
            ],
            [
              38.241005,
              47.214234
            ],
            [
              38.240876,
              47.213243
            ],
            [
              38.241091,
              47.212835
            ],
            [
              38.241692,
              47.212543
            ],
            [
              38.24182,
              47.212222
            ],
            [
              38.240962,
              47.21161
            ],
            [
              38.240662,
              47.211246
            ],
            [
              38.240769,
              47.210896
            ],
            [
              38.241219,
              47.210284
            ],
            [
              38.239868,
              47.209045
            ],
            [
              38.239546,
              47.208739
            ],
            [
              38.237765,
              47.208374
            ],
            [
              38.237185,
              47.208462
            ],
            [
              38.236869,
              47.208156
            ],
            [
              38.236966,
              47.20789
            ],
            [
              38.23725,
              47.207543
            ],
            [
              38.236628,
              47.206537
            ],
            [
              38.236483,
              47.206501
            ],
            [
              38.236279,
              47.206235
            ],
            [
              38.236413,
              47.206115
            ],
            [
              38.236177,
              47.206071
            ],
            [
              38.235919,
              47.205823
            ],
            [
              38.235877,
              47.205488
            ],
            [
              38.234975,
              47.204847
            ],
            [
              38.234632,
              47.204365
            ],
            [
              38.233709,
              47.203826
            ],
            [
              38.235683,
              47.202776
            ],
            [
              38.235684,
              47.200998
            ],
            [
              38.235941,
              47.199686
            ],
            [
              38.235598,
              47.198752
            ],
            [
              38.235598,
              47.197849
            ],
            [
              38.236198,
              47.196478
            ],
            [
              38.236198,
              47.194495
            ],
            [
              38.236713,
              47.184229
            ],
            [
              38.236541,
              47.139762
            ],
            [
              38.230019,
              47.127849
            ],
            [
              38.226742,
              47.120589
            ],
            [
              38.185726,
              47.063574
            ],
            [
              38.089603,
              47.010231
            ],
            [
              38.059392,
              47.010227
            ],
            [
              38.095091,
              47.060767
            ],
            [
              38.075863,
              47.086952
            ],
            [
              38.001716,
              47.071995
            ],
            [
              37.880876,
              47.096305
            ],
            [
              37.776512,
              47.060769
            ],
            [
              37.66391,
              47.06264
            ],
            [
              37.554056,
              47.058897
            ],
            [
              37.501874,
              47.019589
            ],
            [
              37.411241,
              46.929638
            ],
            [
              37.295892,
              46.841417
            ],
            [
              37.227174,
              46.9165
            ],
            [
              37.166809,
              46.882729
            ],
            [
              37.007523,
              46.815107
            ],
            [
              36.925134,
              46.762452
            ],
            [
              36.892172,
              46.690909
            ],
            [
              36.782319,
              46.570209
            ],
            [
              36.705425,
              46.58154
            ],
            [
              36.699928,
              46.70975
            ],
            [
              36.631264,
              46.726695
            ],
            [
              36.507675,
              46.689027
            ],
            [
              36.364866,
              46.623046
            ],
            [
              36.279723,
              46.513532
            ],
            [
              36.123184,
              46.420843
            ],
            [
              36.054534,
              46.453024
            ],
            [
              36.128671,
              46.623049
            ],
            [
              35.958389,
              46.592858
            ],
            [
              35.719452,
              46.500298
            ],
            [
              35.466789,
              46.345049
            ],
            [
              35.291007,
              46.094216
            ],
            [
              34.935247,
              45.989504
            ]
          ]
        ]
      }
    }
  ]
}
